ORBCOMM FM20 [+]        
1 25416U 98046D   23299.75652608  .00001020  00000+0  40779-3 0  9991
2 25416  44.9936 133.5246 0000824  95.6499 264.4442 14.34527127318155
ORBCOMM FM16 [-]        
1 25417U 98046E   23299.76138994  .00001501  00000+0  56846-3 0  9996
2 25417  44.9936 130.5460 0004112 158.4634 201.6386 14.35248084318258
ORBCOMM FM15 [-]        
1 25418U 98046F   23299.75235733  .00001355  00000+0  52069-3 0  9995
2 25418  44.9967 134.2114 0003550 159.7091 200.3897 14.35000998318215
ORBCOMM FM14 [-]        
1 25419U 98046G   23299.74540929  .00001373  00000+0  52549-3 0  9994
2 25419  44.9959 133.5787 0002600 143.2439 316.6222 14.35115471318221
ORBCOMM FM13 [+]        
1 25420U 98046H   23299.75465760  .00001181  00000+0  46394-3 0  9994
2 25420  44.9969 137.4333 0004682 144.8454 215.2703 14.34568482318209
ORBCOMM FM21 [-]        
1 25475U 98053A   23299.07582303  .00001335  00000+0  51780-3 0  9996
2 25475  45.0088 224.7478 0001251 343.6428  16.4378 14.34588291310999
ORBCOMM FM22 [-]        
1 25476U 98053B   23299.18439190  .00001581  00000+0  59970-3 0  9996
2 25476  45.0076 222.2035 0001814  50.1245 309.9762 14.34962823310995
ORBCOMM FM23 [-]        
1 25477U 98053C   23299.17534399  .00001404  00000+0  54235-3 0  9996
2 25477  45.0087 226.7225 0001415  26.7707 333.3212 14.34564890311159
